{
  "type": "FeatureCollection",
  "features": [
    {
      "type": "Feature",
      "properties": {
        "norad_id": 48859,
        "name": "GPS BIII-5  (PRN 11)",
        "group": "gps-ops",
        "lat": 51.06362345291502,
        "lon": 100.36454992788165,
        "alt_km": 20214.614856961412,
        "timestamp": "2025-12-22T04:03:39.428201+00:00",
        "meta_object_name": "GPS BIII-5  (PRN 11)",
        "meta_object_id": "2021-054A",
        "meta_epoch": "2025-12-08T04:14:32.423424",
        "meta_mean_motion": 2.00553627,
        "meta_eccentricity": 0.0024678,
        "meta_inclination": 55.2581,
        "meta_ra_of_asc_node": 340.1367,
        "meta_arg_of_pericenter": 233.3993,
        "meta_mean_anomaly": 212.8594,
        "meta_ephemeris_type": 0,
        "meta_classification_type": "U",
        "meta_norad_cat_id": 48859,
        "meta_element_set_no": 999,
        "meta_rev_at_epoch": 3292,
        "meta_bstar": 0,
        "meta_mean_motion_dot": -8.6e-07,
        "meta_mean_motion_ddot": 0,
        "tle_line1": "1 48859U 21054A   25342.17676416 -.00000086  00000+0  00000+0 0  9993",
        "tle_line2": "2 48859  55.2581 340.1367 0024678 233.3993 212.8594  2.00553627 32922"
      },
      "geometry": {
        "type": "Point",
        "coordinates": [
          100.36454992788165,
          51.06362345291502
        ]
      }
    },
    {
      "type": "Feature",
      "properties": {
        "norad_id": 55268,
        "name": "GPS BIII-6  (PRN 28)",
        "group": "gps-ops",
        "lat": 22.98499241609177,
        "lon": -41.757662829828554,
        "alt_km": 20189.233303855533,
        "timestamp": "2025-12-22T04:03:39.428213+00:00",
        "meta_object_name": "GPS BIII-6  (PRN 28)",
        "meta_object_id": "2023-009A",
        "meta_epoch": "2025-12-21T11:01:56.819424",
        "meta_mean_motion": 2.00555004,
        "meta_eccentricity": 0.00037189,
        "meta_inclination": 55.1065,
        "meta_ra_of_asc_node": 155.503,
        "meta_arg_of_pericenter": 355.6529,
        "meta_mean_anomaly": 3.5346,
        "meta_ephemeris_type": 0,
        "meta_classification_type": "U",
        "meta_norad_cat_id": 55268,
        "meta_element_set_no": 999,
        "meta_rev_at_epoch": 2167,
        "meta_bstar": 0,
        "meta_mean_motion_dot": 6.8e-07,
        "meta_mean_motion_ddot": 0,
        "tle_line1": "1 55268U 23009A   25355.45968541  .00000068  00000+0  00000+0 0  9994",
        "tle_line2": "2 55268  55.1065 155.5030 0003718 355.6529   3.5346  2.00555004 21671"
      },
      "geometry": {
        "type": "Point",
        "coordinates": [
          -41.757662829828554,
          22.98499241609177
        ]
      }
    },
    {
      "type": "Feature",
      "properties": {
        "norad_id": 62339,
        "name": "GPS BIII-7  (PRN 01)",
        "group": "gps-ops",
        "lat": -38.273395507597854,
        "lon": -164.98740619822257,
        "alt_km": 20201.17353863232,
        "timestamp": "2025-12-22T04:03:39.428225+00:00",
        "meta_object_name": "GPS BIII-7  (PRN 01)",
        "meta_object_id": "2024-242A",
        "meta_epoch": "2025-12-18T08:46:28.895808",
        "meta_mean_motion": 2.00568182,
        "meta_eccentricity": 0.0012509,
        "meta_inclination": 54.922,
        "meta_ra_of_asc_node": 341.5124,
        "meta_arg_of_pericenter": 345.6877,
        "meta_mean_anomaly": 17.1618,
        "meta_ephemeris_type": 0,
        "meta_classification_type": "U",
        "meta_norad_cat_id": 62339,
        "meta_element_set_no": 999,
        "meta_rev_at_epoch": 763,
        "meta_bstar": 0,
        "meta_mean_motion_dot": -8.5e-07,
        "meta_mean_motion_ddot": 0,
        "tle_line1": "1 62339U 24242A   25352.36561222 -.00000085  00000+0  00000+0 0  9993",
        "tle_line2": "2 62339  54.9220 341.5124 0012509 345.6877  17.1618  2.00568182  7636"
      },
      "geometry": {
        "type": "Point",
        "coordinates": [
          -164.98740619822257,
          -38.273395507597854
        ]
      }
    },
    {
      "type": "Feature",
      "properties": {
        "norad_id": 64202,
        "name": "GPS BIII-8  (PRN 21)",
        "group": "gps-ops",
        "lat": 44.350643134732366,
        "lon": 81.25835035081029,
        "alt_km": 20182.26779792903,
        "timestamp": "2025-12-22T04:03:39.428237+00:00",
        "meta_object_name": "GPS BIII-8  (PRN 21)",
        "meta_object_id": "2025-116A",
        "meta_epoch": "2025-12-21T15:32:25.982016",
        "meta_mean_motion": 2.00557819,
        "meta_eccentricity": 0.0005846,
        "meta_inclination": 55.1118,
        "meta_ra_of_asc_node": 38.2817,
        "meta_arg_of_pericenter": 310.1313,
        "meta_mean_anomaly": 91.6448,
        "meta_ephemeris_type": 0,
        "meta_classification_type": "U",
        "meta_norad_cat_id": 64202,
        "meta_element_set_no": 999,
        "meta_rev_at_epoch": 431,
        "meta_bstar": 0,
        "meta_mean_motion_dot": -5.4e-07,
        "meta_mean_motion_ddot": 0,
        "tle_line1": "1 64202U 25116A   25355.64752294 -.00000054  00000+0  00000+0 0  9996",
        "tle_line2": "2 64202  55.1118  38.2817 0005846 310.1313  91.6448  2.00557819  4318"
      },
      "geometry": {
        "type": "Point",
        "coordinates": [
          81.25835035081029,
          44.350643134732366
        ]
      }
    }
  ]
}